     3.03           N: GNSS NAV DATA    M: MIXED            RINEX VERSION / TYPE
GR30 V4.20          ASI-egeos           20210709 235942 UTC PGM / RUN BY / DATE
GAL    4.7250D+01  1.3281D-01  1.0895D-02                   IONOSPHERIC CORR
GPSA   4.6566D-09  1.4901D-08 -5.9605D-08 -1.1921D-07       IONOSPHERIC CORR
GPSB   8.1920D+04  8.1920D+04 -6.5536D+04 -5.2429D+05       IONOSPHERIC CORR
BDSA   8.3819D-09  1.4901D-08 -2.3842D-07  3.5763D-07 W 05  IONOSPHERIC CORR
BDSA   8.3819D-09  1.4901D-08 -2.3842D-07  3.5763D-07 Q 06  IONOSPHERIC CORR
BDSA   8.3819D-09  1.4901D-08 -2.3842D-07  3.5763D-07 W 07  IONOSPHERIC CORR
BDSA   8.3819D-09  0.0000D+00 -1.7881D-07  2.9802D-07 I 08  IONOSPHERIC CORR
BDSA   8.3819D-09  1.4901D-08 -2.3842D-07  3.5763D-07 S 09  IONOSPHERIC CORR
BDSA   8.3819D-09  1.4901D-08 -2.3842D-07  3.5763D-07 W 10  IONOSPHERIC CORR
BDSA   8.3819D-09  0.0000D+00 -1.7881D-07  2.9802D-07 Q 11  IONOSPHERIC CORR
BDSA   8.3819D-09 -7.4506D-09 -1.1921D-07  1.7881D-07 O 12  IONOSPHERIC CORR
BDSA   8.3819D-09  7.4506D-09 -1.7881D-07  2.9802D-07 K 13  IONOSPHERIC CORR
BDSA   8.3819D-09  1.4901D-08 -2.3842D-07  3.5763D-07 X 14  IONOSPHERIC CORR
BDSA   8.3819D-09  1.4901D-08 -2.3842D-07  3.5763D-07 Q 16  IONOSPHERIC CORR
BDSA   8.3819D-09  1.4901D-08 -2.3842D-07  3.5763D-07 S 19  IONOSPHERIC CORR
BDSA   8.3819D-09  1.4901D-08 -2.3842D-07  3.5763D-07 O 20  IONOSPHERIC CORR
BDSA   8.3819D-09  1.4901D-08 -2.3842D-07  3.5763D-07 W 21  IONOSPHERIC CORR
BDSA   8.3819D-09  1.4901D-08 -2.3842D-07  3.5763D-07 U 22  IONOSPHERIC CORR
BDSA   8.3819D-09 -7.4506D-09 -1.1921D-07  1.7881D-07 E 23  IONOSPHERIC CORR
BDSA   8.3819D-09  1.4901D-08 -2.3842D-07  3.5763D-07 W 24  IONOSPHERIC CORR
BDSA   8.3819D-09  1.4901D-08 -2.3842D-07  3.5763D-07 W 25  IONOSPHERIC CORR
BDSA   8.3819D-09  1.4901D-08 -2.3842D-07  3.5763D-07 W 26  IONOSPHERIC CORR
BDSA   8.3819D-09  7.4506D-09 -1.7881D-07  2.9802D-07 K 27  IONOSPHERIC CORR
BDSA   8.3819D-09  1.4901D-08 -2.3842D-07  3.5763D-07 U 28  IONOSPHERIC CORR
BDSA   8.3819D-09  1.4901D-08 -2.3842D-07  3.5763D-07 O 29  IONOSPHERIC CORR
BDSA   8.3819D-09  1.4901D-08 -2.3842D-07  3.5763D-07 M 30  IONOSPHERIC CORR
BDSB   1.0240D+05  3.9322D+05 -1.3107D+06  7.8643D+05 W 05  IONOSPHERIC CORR
BDSB   1.0854D+05  3.1130D+05 -1.0486D+06  6.5536D+05 Q 06  IONOSPHERIC CORR
BDSB   1.0240D+05  3.9322D+05 -1.3107D+06  7.8643D+05 W 07  IONOSPHERIC CORR
BDSB   1.0240D+05  3.9322D+05 -1.3107D+06  7.8643D+05 I 08  IONOSPHERIC CORR
BDSB   1.0650D+05  3.4406D+05 -1.1796D+06  7.8643D+05 S 09  IONOSPHERIC CORR
BDSB   1.0240D+05  3.9322D+05 -1.3107D+06  7.8643D+05 W 10  IONOSPHERIC CORR
BDSB   1.0240D+05  3.9322D+05 -1.3107D+06  7.8643D+05 Q 11  IONOSPHERIC CORR
BDSB   1.0240D+05  4.0960D+05 -1.3763D+06  8.5197D+05 O 12  IONOSPHERIC CORR
BDSB   1.0445D+05  3.7683D+05 -1.1796D+06  7.2090D+05 K 13  IONOSPHERIC CORR
BDSB   1.0240D+05  3.9322D+05 -1.3107D+06  7.8643D+05 X 14  IONOSPHERIC CORR
BDSB   1.0854D+05  3.1130D+05 -1.0486D+06  6.5536D+05 Q 16  IONOSPHERIC CORR
BDSB   1.0650D+05  3.4406D+05 -1.1796D+06  7.8643D+05 S 19  IONOSPHERIC CORR
BDSB   1.0650D+05  2.9491D+05 -8.5197D+05  5.2429D+05 O 20  IONOSPHERIC CORR
BDSB   1.0240D+05  3.9322D+05 -1.3107D+06  7.8643D+05 W 21  IONOSPHERIC CORR
BDSB   1.0445D+05  3.7683D+05 -1.3107D+06  7.8643D+05 U 22  IONOSPHERIC CORR
BDSB   1.0240D+05  4.0960D+05 -1.3763D+06  8.5197D+05 E 23  IONOSPHERIC CORR
BDSB   1.0240D+05  3.9322D+05 -1.3107D+06  7.8643D+05 W 24  IONOSPHERIC CORR
BDSB   1.0240D+05  3.9322D+05 -1.3107D+06  7.8643D+05 W 25  IONOSPHERIC CORR
BDSB   1.0240D+05  3.9322D+05 -1.3107D+06  7.8643D+05 W 26  IONOSPHERIC CORR
BDSB   1.0445D+05  3.7683D+05 -1.1796D+06  7.2090D+05 K 27  IONOSPHERIC CORR
BDSB   1.0445D+05  3.7683D+05 -1.3107D+06  7.8643D+05 U 28  IONOSPHERIC CORR
BDSB   1.0650D+05  2.9491D+05 -8.5197D+05  5.2429D+05 O 29  IONOSPHERIC CORR
BDSB   1.0445D+05  3.4406D+05 -1.0486D+06  6.5536D+05 M 30  IONOSPHERIC CORR
GPUT -1.8626451492D-09-5.329070518D-15 147456 2166          TIME SYSTEM CORR
GLUT  1.8160790205D-08 0.000000000D+00      0    0          TIME SYSTEM CORR
GAUT  9.3132257462D-10 0.000000000D+00 432000 2165          TIME SYSTEM CORR
GPGA  3.0267983675D-09 6.217248938D-15 518400 2165          TIME SYSTEM CORR
BDUT -5.5879354477D-09-9.769962617D-15 518345  809          TIME SYSTEM CORR
    18    18  1929     7                                    LEAP SECONDS
                                                            END OF HEADER
R14 2021 07 10 09 15 00 6.628874689341D-05 0.000000000000D+00 5.508000000000D+05
     1.331799365234D+04 2.741817474365D+00 9.313225746155D-10 0.000000000000D+00
    -8.287671386719D+03 2.382173538208D-01 3.725290298462D-09-7.000000000000D+00
     2.012431103516D+04-1.719580650330D+00-9.313225746155D-10 0.000000000000D+00
R08 2021 07 10 09 15 00-5.986914038658D-05 0.000000000000D+00 5.508000000000D+05
     7.119758300781D+03-1.683120727539D-01 3.725290298462D-09 0.000000000000D+00
     2.378788476563D+04-8.034276962280D-01 1.862645149231D-09 6.000000000000D+00
     5.941823242188D+03 3.449143409729D+00 1.862645149231D-09 0.000000000000D+00
C30 2021 07 10 09 00 00 4.735551774502D-04 1.341149413747D-12 0.000000000000D+00
     1.000000000000D+00 1.010937500000D+02 3.981594420818D-09-1.980536897311D-01
     4.933215677738D-06 4.535886691883D-04-1.052394509315D-07 5.282616472244D+03
     5.508000000000D+05-5.029141902924D-08 1.395328273800D+00-2.980232238770D-08
     9.650080754084D-01 3.608281250000D+02 6.434654256378D-01-7.206014445140D-09
     5.571660653459D-11                    8.090000000000D+02                   
     2.000000000000D+00 0.000000000000D+00-9.800000000000D-09-9.800000000000D-09
     5.508000000000D+05 1.000000000000D+00                                      
C14 2021 07 10 09 00 00 8.203533943743D-04-3.494715627994D-11 0.000000000000D+00
     1.000000000000D+00-6.890625000000D+01 3.261921586413D-09 1.641597228668D+00
    -3.351829946041D-06 1.408139243722D-03 1.171743497252D-05 5.282626565933D+03
     5.508000000000D+05-7.171183824539D-08-2.775076162844D+00 3.725290298462D-08
     9.641262283902D-01 1.241250000000D+02-5.279458039990D-01-6.347050094399D-09
     4.893060958486D-10                    8.090000000000D+02                   
     2.000000000000D+00 0.000000000000D+00 6.700000000000D-09 1.400000000000D-09
     5.508000000000D+05 0.000000000000D+00                                      
C27 2021 07 10 09 00 00 5.619832081720D-04 6.248335182590D-12 0.000000000000D+00
     1.000000000000D+00 9.382812500000D+01 3.955521906222D-09 9.326853232303D-03
     4.639849066734D-06 7.279340643436D-04-4.507601261139D-07 5.282620635986D+03
     5.508000000000D+05-8.847564458847D-09 1.433378914945D+00-6.053596735001D-09
     9.662640052086D-01 3.714062500000D+02 1.196905993082D+00-7.218514965837D-09
     9.143237995420D-11                    8.090000000000D+02                   
     2.000000000000D+00 0.000000000000D+00-4.500000000000D-09-4.500000000000D-09
     5.508000000000D+05 1.000000000000D+00                                      
C28 2021 07 10 09 00 00-5.235313437879D-05 4.801492536899D-12 0.000000000000D+00
     1.000000000000D+00 8.979687500000D+01 3.907305612105D-09-8.190549505720D-01
     4.371628165245D-06 1.749158836901D-04-5.774199962616D-07 5.282619203568D+03
     5.508000000000D+05-2.281740307808D-08 1.433201221601D+00-4.097819328308D-08
     9.661597167046D-01 3.776562500000D+02 2.813753262083D+00-7.161369728366D-09
     5.857386840816D-11                    8.090000000000D+02                   
     2.000000000000D+00 0.000000000000D+00-4.400000000000D-09-4.400000000000D-09
     5.508000000000D+05 1.000000000000D+00                                      
C13 2021 07 10 09 00 00 3.312006592751D-04 1.394173665403D-11 0.000000000000D+00
     1.000000000000D+00-7.792031250000D+02 8.325346784111D-10-1.870000918233D+00
    -2.512056380510D-05 3.733035176992D-03-4.387926310301D-06 6.493624589920D+03
     5.508000000000D+05-1.685693860054D-07 2.342782834674D+00 7.869675755501D-08
     1.005200753389D+00 3.927968750000D+02-2.619270400314D+00-2.389742399506D-09
    -6.503842339711D-10                    8.090000000000D+02                   
     2.000000000000D+00 0.000000000000D+00-9.700000000000D-09 2.300000000000D-09
     5.508000000000D+05 0.000000000000D+00                                      
C05 2021 07 10 09 00 00-5.187210626900D-05 1.698285956309D-11 0.000000000000D+00
     1.000000000000D+00-8.338750000000D+02 1.168655822063D-08 1.367132916768D+00
    -2.708006650209D-05 7.535476470366D-04-6.786547601223D-06 6.493496635437D+03
     5.508000000000D+05-4.740431904793D-07-7.148237929259D-01-9.918585419655D-08
     5.911377661179D-02 2.095312500000D+02 2.839464136564D+00-1.054758220628D-08
    -8.343204670821D-10                    8.090000000000D+02                   
     2.000000000000D+00 0.000000000000D+00-5.000000000000D-10-9.600000000000D-09
     5.508004000000D+05 0.000000000000D+00                                      
E24 2021 07 10 08 50 00-1.000003307126D-03-2.053468506347D-11 0.000000000000D+00
     2.100000000000D+01 7.262500000000D+01 2.759757812133D-09 2.507505802653D+00
     3.289431333542D-06 3.627389669418D-04 1.163780689240D-05 5.440605327606D+03
     5.502000000000D+05-3.725290298462D-08-1.873475929450D-01-6.891787052155D-08
     9.752528029424D-01 9.900000000000D+01 6.367664706680D-01-5.082711715344D-09
    -5.996678357152D-10 5.170000000000D+02 2.165000000000D+03 0.000000000000D+00
     3.120000000000D+00 0.000000000000D+00-3.492459654808D-09-4.423782229424D-09
     5.508640000000D+05
